ONEWEB-0207             
1 48242U 21031AJ  25258.24075212  .00000181  00000+0  45329-3 0  9997
2 48242  87.9081 344.4317 0002064 100.3430 259.7933 13.14502711212170
ONEWEB-0208             
1 48243U 21031AK  25258.60310149  .00000148  00000+0  36482-3 0  9992
2 48243  87.9085 344.3746 0001817 106.4788 253.6542 13.14505095212232
ONEWEB-0200             
1 48244U 21031AL  25258.49051867 -.00000248  00000+0 -70379-3 0  9995
2 48244  87.9082 344.3874 0001838 103.5403 256.5932 13.14502899212141
ONEWEB-0217             
1 48245U 21031AM  25258.50636416 -.00000086  00000+0 -26646-3 0  9995
2 48245  87.9094 344.3710 0001788 110.4895 249.6426 13.14503014212095
ONEWEB-0211             
1 48767U 21045A   25258.59732350  .00000120  00000+0  28196-3 0  9991
2 48767  87.9035 313.9237 0001590 100.5763 259.5547 13.16084889208321
ONEWEB-0223             
1 48768U 21045B   25258.55025103  .00000002  00000+0 -29405-4 0  9994
2 48768  87.9026 313.9867 0001401  99.5583 260.5706 13.15549293208298
ONEWEB-0230             
1 48769U 21045C   25258.59779215  .00000164  00000+0  40278-3 0  9997
2 48769  87.9021 314.0105 0001944  93.5173 266.6179 13.15548713208569
ONEWEB-0237             
1 48770U 21045D   25258.58669519 -.00000004  00000+0 -44066-4 0  9998
2 48770  87.9031 314.0080 0001600  95.5892 264.5421 13.15553513208283
